[{"OBJECT_NAME":"SHIJIAN-6 02B (SJ-6 02B)","OBJECT_ID":"2006-046B","EPOCH":"2026-03-09T23:09:06.940224","MEAN_MOTION":15.01001333,"ECCENTRICITY":0.00140021,"INCLINATION":97.7065,"RA_OF_ASC_NODE":98.697,"ARG_OF_PERICENTER":42.7506,"MEAN_ANOMALY":317.4805,"EPHEMERIS_TYPE":0,"CLASSIFICATION_TYPE":"U","NORAD_CAT_ID":29506,"ELEMENT_SET_NO":999,"REV_AT_EPOCH":5585,"BSTAR":0.00024683398,"MEAN_MOTION_DOT":3.096e-5,"MEAN_MOTION_DDOT":0},{"OBJECT_NAME":"STARLINK-4430","OBJECT_ID":"2022-099W","EPOCH":"2026-03-09T21:30:27.711648","MEAN_MOTION":15.01258738,"ECCENTRICITY":0.00032901,"INCLINATION":97.604,"RA_OF_ASC_NODE":190.4101,"ARG_OF_PERICENTER":183.5197,"MEAN_ANOMALY":176.6004,"EPHEMERIS_TYPE":0,"CLASSIFICATION_TYPE":"U","NORAD_CAT_ID":53485,"ELEMENT_SET_NO":999,"REV_AT_EPOCH":19601,"BSTAR":5.9264035e-5,"MEAN_MOTION_DOT":7.03e-6,"MEAN_MOTION_DDOT":0}]
